[{"OBJECT_NAME":"STARLINK-2291","OBJECT_ID":"2021-021C","EPOCH":"2026-03-09T17:34:29.054208","MEAN_MOTION":15.3018529,"ECCENTRICITY":9.91e-5,"INCLINATION":53.1588,"RA_OF_ASC_NODE":255.0616,"ARG_OF_PERICENTER":118.3853,"MEAN_ANOMALY":241.7248,"EPHEMERIS_TYPE":0,"CLASSIFICATION_TYPE":"U","NORAD_CAT_ID":47862,"ELEMENT_SET_NO":999,"REV_AT_EPOCH":27643,"BSTAR":1.7319636e-5,"MEAN_MOTION_DOT":1.54e-6,"MEAN_MOTION_DDOT":0},{"OBJECT_NAME":"COSMOS 2251 DEB","OBJECT_ID":"1993-036RB","EPOCH":"2026-03-09T01:08:04.800192","MEAN_MOTION":15.30699894,"ECCENTRICITY":0.00252965,"INCLINATION":73.7308,"RA_OF_ASC_NODE":76.2904,"ARG_OF_PERICENTER":263.9966,"MEAN_ANOMALY":95.8352,"EPHEMERIS_TYPE":0,"CLASSIFICATION_TYPE":"U","NORAD_CAT_ID":34410,"ELEMENT_SET_NO":999,"REV_AT_EPOCH":91089,"BSTAR":0.003018315,"MEAN_MOTION_DOT":0.00091531,"MEAN_MOTION_DDOT":0}]
